[{"OBJECT_NAME":"ONEWEB-0406","OBJECT_ID":"2021-132T","EPOCH":"2023-11-23T13:51:24.860448","MEAN_MOTION":13.18688205,"ECCENTRICITY":0.0002052,"INCLINATION":87.921,"RA_OF_ASC_NODE":161.7837,"ARG_OF_PERICENTER":83.3517,"MEAN_ANOMALY":276.7849,"EPHEMERIS_TYPE":0,"CLASSIFICATION_TYPE":"U","NORAD_CAT_ID":50486,"ELEMENT_SET_NO":999,"REV_AT_EPOCH":9818,"BSTAR":0.00019474,"MEAN_MOTION_DOT":9.0e-7,"MEAN_MOTION_DDOT":0},{"OBJECT_NAME":"ONEWEB-0407","OBJECT_ID":"2021-132U","EPOCH":"2023-11-23T13:42:20.105856","MEAN_MOTION":13.1868619,"ECCENTRICITY":0.0001593,"INCLINATION":87.9213,"RA_OF_ASC_NODE":161.7935,"ARG_OF_PERICENTER":77.7127,"MEAN_ANOMALY":282.4183,"EPHEMERIS_TYPE":0,"CLASSIFICATION_TYPE":"U","NORAD_CAT_ID":50487,"ELEMENT_SET_NO":999,"REV_AT_EPOCH":9812,"BSTAR":0.00022331,"MEAN_MOTION_DOT":1.01e-6,"MEAN_MOTION_DDOT":0},{"OBJECT_NAME":"ONEWEB-0409","OBJECT_ID":"2021-132V","EPOCH":"2023-11-23T04:14:09.864384","MEAN_MOTION":13.11419112,"ECCENTRICITY":0.0002188,"INCLINATION":87.8986,"RA_OF_ASC_NODE":207.2532,"ARG_OF_PERICENTER":84.1749,"MEAN_ANOMALY":275.9628,"EPHEMERIS_TYPE":0,"CLASSIFICATION_TYPE":"U","NORAD_CAT_ID":50488,"ELEMENT_SET_NO":999,"REV_AT_EPOCH":9277,"BSTAR":-0.00056011,"MEAN_MOTION_DOT":-1.86e-6,"MEAN_MOTION_DDOT":0},{"OBJECT_NAME":"ONEWEB-0412","OBJECT_ID":"2021-132W","EPOCH":"2023-11-23T13:27:07.113600","MEAN_MOTION":13.18690294,"ECCENTRICITY":0.0001557,"INCLINATION":87.9217,"RA_OF_ASC_NODE":161.7849,"ARG_OF_PERICENTER":64.8551,"MEAN_ANOMALY":295.2743,"EPHEMERIS_TYPE":0,"CLASSIFICATION_TYPE":"U","NORAD_CAT_ID":50489,"ELEMENT_SET_NO":999,"REV_AT_EPOCH":9821,"BSTAR":0.00020254,"MEAN_MOTION_DOT":9.3e-7,"MEAN_MOTION_DDOT":0},{"OBJECT_NAME":"ONEWEB-0413","OBJECT_ID":"2021-132X","EPOCH":"2023-11-23T13:33:12.940704","MEAN_MOTION":13.18685319,"ECCENTRICITY":0.0001428,"INCLINATION":87.9217,"RA_OF_ASC_NODE":161.7976,"ARG_OF_PERICENTER":72.6429,"MEAN_ANOMALY":287.4859,"EPHEMERIS_TYPE":0,"CLASSIFICATION_TYPE":"U","NORAD_CAT_ID":50490,"ELEMENT_SET_NO":999,"REV_AT_EPOCH":9815,"BSTAR":0.00022719,"MEAN_MOTION_DOT":1.02e-6,"MEAN_MOTION_DDOT":0},{"OBJECT_NAME":"ONEWEB-0414","OBJECT_ID":"2021-132Y","EPOCH":"2023-11-23T13:13:29.552736","MEAN_MOTION":13.18688898,"ECCENTRICITY":0.0001766,"INCLINATION":87.9214,"RA_OF_ASC_NODE":161.7876,"ARG_OF_PERICENTER":71.3595,"MEAN_ANOMALY":288.7729,"EPHEMERIS_TYPE":0,"CLASSIFICATION_TYPE":"U","NORAD_CAT_ID":50491,"ELEMENT_SET_NO":999,"REV_AT_EPOCH":9818,"BSTAR":0.00011277,"MEAN_MOTION_DOT":5.7e-7,"MEAN_MOTION_DDOT":0},{"OBJECT_NAME":"ONEWEB-0417","OBJECT_ID":"2021-132Z","EPOCH":"2023-11-23T13:24:05.348736","MEAN_MOTION":13.18688208,"ECCENTRICITY":0.0001881,"INCLINATION":87.9156,"RA_OF_ASC_NODE":161.787,"ARG_OF_PERICENTER":88.1531,"MEAN_ANOMALY":271.9816,"EPHEMERIS_TYPE":0,"CLASSIFICATION_TYPE":"U","NORAD_CAT_ID":50492,"ELEMENT_SET_NO":999,"REV_AT_EPOCH":9816,"BSTAR":0.00020683,"MEAN_MOTION_DOT":9.4e-7,"MEAN_MOTION_DDOT":0},{"OBJECT_NAME":"ONEWEB-0418","OBJECT_ID":"2021-132AA","EPOCH":"2023-11-23T13:43:49.503072","MEAN_MOTION":13.1868349,"ECCENTRICITY":0.0002151,"INCLINATION":87.9216,"RA_OF_ASC_NODE":161.7847,"ARG_OF_PERICENTER":88.8951,"MEAN_ANOMALY":271.2427,"EPHEMERIS_TYPE":0,"CLASSIFICATION_TYPE":"U","NORAD_CAT_ID":50493,"ELEMENT_SET_NO":999,"REV_AT_EPOCH":9822,"BSTAR":0.00018839,"MEAN_MOTION_DOT":8.7e-7,"MEAN_MOTION_DDOT":0},{"OBJECT_NAME":"ONEWEB-0419","OBJECT_ID":"2021-132AB","EPOCH":"2023-11-23T14:03:33.150240","MEAN_MOTION":13.18684758,"ECCENTRICITY":0.0001842,"INCLINATION":87.9211,"RA_OF_ASC_NODE":161.8049,"ARG_OF_PERICENTER":96.4373,"MEAN_ANOMALY":263.6969,"EPHEMERIS_TYPE":0,"CLASSIFICATION_TYPE":"U","NORAD_CAT_ID":50494,"ELEMENT_SET_NO":999,"REV_AT_EPOCH":9814,"BSTAR":0.00019855,"MEAN_MOTION_DOT":9.1e-7,"MEAN_MOTION_DDOT":0},{"OBJECT_NAME":"ONEWEB-0420","OBJECT_ID":"2021-132AC","EPOCH":"2023-11-23T13:14:59.060544","MEAN_MOTION":13.18684612,"ECCENTRICITY":0.0001205,"INCLINATION":87.9213,"RA_OF_ASC_NODE":161.8196,"ARG_OF_PERICENTER":79.7783,"MEAN_ANOMALY":280.3485,"EPHEMERIS_TYPE":0,"CLASSIFICATION_TYPE":"U","NORAD_CAT_ID":50495,"ELEMENT_SET_NO":999,"REV_AT_EPOCH":9813,"BSTAR":0.00014442,"MEAN_MOTION_DOT":7.0e-7,"MEAN_MOTION_DDOT":0},{"OBJECT_NAME":"ONEWEB-0421","OBJECT_ID":"2021-132AD","EPOCH":"2023-11-23T13:05:53.924928","MEAN_MOTION":13.1868678,"ECCENTRICITY":0.0001653,"INCLINATION":87.9155,"RA_OF_ASC_NODE":161.7791,"ARG_OF_PERICENTER":65.852,"MEAN_ANOMALY":294.2785,"EPHEMERIS_TYPE":0,"CLASSIFICATION_TYPE":"U","NORAD_CAT_ID":50496,"ELEMENT_SET_NO":999,"REV_AT_EPOCH":9817,"BSTAR":0.00014192,"MEAN_MOTION_DOT":6.9e-7,"MEAN_MOTION_DDOT":0},{"OBJECT_NAME":"ONEWEB-0424","OBJECT_ID":"2021-132AE","EPOCH":"2023-11-23T13:57:29.027808","MEAN_MOTION":13.1868687,"ECCENTRICITY":0.0001715,"INCLINATION":87.9217,"RA_OF_ASC_NODE":161.7799,"ARG_OF_PERICENTER":105.4824,"MEAN_ANOMALY":254.6498,"EPHEMERIS_TYPE":0,"CLASSIFICATION_TYPE":"U","NORAD_CAT_ID":50497,"ELEMENT_SET_NO":999,"REV_AT_EPOCH":9820,"BSTAR":0.00016806,"MEAN_MOTION_DOT":7.9e-7,"MEAN_MOTION_DDOT":0},{"OBJECT_NAME":"ONEWEB-0426","OBJECT_ID":"2021-132AF","EPOCH":"2023-11-23T13:02:51.867168","MEAN_MOTION":13.18685205,"ECCENTRICITY":0.000223,"INCLINATION":87.9211,"RA_OF_ASC_NODE":161.8132,"ARG_OF_PERICENTER":76.6199,"MEAN_ANOMALY":283.5182,"EPHEMERIS_TYPE":0,"CLASSIFICATION_TYPE":"U","NORAD_CAT_ID":50498,"ELEMENT_SET_NO":999,"REV_AT_EPOCH":9814,"BSTAR":0.00012038,"MEAN_MOTION_DOT":6.0e-7,"MEAN_MOTION_DDOT":0},{"OBJECT_NAME":"ONEWEB-0427","OBJECT_ID":"2021-132AG","EPOCH":"2023-11-23T13:54:26.262432","MEAN_MOTION":13.18685335,"ECCENTRICITY":0.0001851,"INCLINATION":87.9211,"RA_OF_ASC_NODE":161.7804,"ARG_OF_PERICENTER":87.8571,"MEAN_ANOMALY":272.2773,"EPHEMERIS_TYPE":0,"CLASSIFICATION_TYPE":"U","NORAD_CAT_ID":50499,"ELEMENT_SET_NO":999,"REV_AT_EPOCH":9817,"BSTAR":-0.00046658,"MEAN_MOTION_DOT":-1.71e-6,"MEAN_MOTION_DDOT":0},{"OBJECT_NAME":"ONEWEB-0429","OBJECT_ID":"2021-132AH","EPOCH":"2023-11-23T13:36:15.459840","MEAN_MOTION":13.18689797,"ECCENTRICITY":0.0001479,"INCLINATION":87.92,"RA_OF_ASC_NODE":161.7842,"ARG_OF_PERICENTER":85.8601,"MEAN_ANOMALY":274.27,"EPHEMERIS_TYPE":0,"CLASSIFICATION_TYPE":"U","NORAD_CAT_ID":50500,"ELEMENT_SET_NO":999,"REV_AT_EPOCH":9814,"BSTAR":0.00021477,"MEAN_MOTION_DOT":9.8e-7,"MEAN_MOTION_DDOT":0},{"OBJECT_NAME":"ONEWEB-0430","OBJECT_ID":"2021-132AJ","EPOCH":"2023-11-23T13:21:05.241888","MEAN_MOTION":13.18683266,"ECCENTRICITY":0.0001553,"INCLINATION":87.9216,"RA_OF_ASC_NODE":161.79,"ARG_OF_PERICENTER":91.0389,"MEAN_ANOMALY":269.092,"EPHEMERIS_TYPE":0,"CLASSIFICATION_TYPE":"U","NORAD_CAT_ID":50501,"ELEMENT_SET_NO":999,"REV_AT_EPOCH":9818,"BSTAR":0.00018703,"MEAN_MOTION_DOT":8.7e-7,"MEAN_MOTION_DDOT":0},{"OBJECT_NAME":"ONEWEB-0432","OBJECT_ID":"2021-132AK","EPOCH":"2023-11-23T14:06:35.601984","MEAN_MOTION":13.18686625,"ECCENTRICITY":0.0001507,"INCLINATION":87.9214,"RA_OF_ASC_NODE":161.7792,"ARG_OF_PERICENTER":89.5807,"MEAN_ANOMALY":270.5497,"EPHEMERIS_TYPE":0,"CLASSIFICATION_TYPE":"U","NORAD_CAT_ID":50502,"ELEMENT_SET_NO":999,"REV_AT_EPOCH":9814,"BSTAR":0.00013993,"MEAN_MOTION_DOT":6.8e-7,"MEAN_MOTION_DDOT":0}]
