ONEWEB-0406             
1 50486U 21132T   23327.57737107  .00000090  00000+0  19474-3 0  9992
2 50486  87.9210 161.7837 0002052  83.3517 276.7849 13.18688205 98182
ONEWEB-0407             
1 50487U 21132U   23327.57106604  .00000101  00000+0  22331-3 0  9994
2 50487  87.9213 161.7935 0001593  77.7127 282.4183 13.18686190 98128
ONEWEB-0409             
1 50488U 21132V   23327.17650306 -.00000186  00000+0 -56011-3 0  9991
2 50488  87.8986 207.2532 0002188  84.1749 275.9628 13.11419112 92774
ONEWEB-0412             
1 50489U 21132W   23327.56049900  .00000093  00000+0  20254-3 0  9992
2 50489  87.9217 161.7849 0001557  64.8551 295.2743 13.18690294 98210
ONEWEB-0413             
1 50490U 21132X   23327.56473311  .00000102  00000+0  22719-3 0  9990
2 50490  87.9217 161.7976 0001428  72.6429 287.4859 13.18685319 98157
ONEWEB-0414             
1 50491U 21132Y   23327.55103649  .00000057  00000+0  11277-3 0  9990
2 50491  87.9214 161.7876 0001766  71.3595 288.7729 13.18688898 98187
ONEWEB-0417             
1 50492U 21132Z   23327.55839524  .00000094  00000+0  20683-3 0  9991
2 50492  87.9156 161.7870 0001881  88.1531 271.9816 13.18688208 98165
ONEWEB-0418             
1 50493U 21132AA  23327.57210073  .00000087  00000+0  18839-3 0  9998
2 50493  87.9216 161.7847 0002151  88.8951 271.2427 13.18683490 98227
ONEWEB-0419             
1 50494U 21132AB  23327.58580035  .00000091  00000+0  19855-3 0  9992
2 50494  87.9211 161.8049 0001842  96.4373 263.6969 13.18684758 98142
ONEWEB-0420             
1 50495U 21132AC  23327.55207246  .00000070  00000+0  14442-3 0  9994
2 50495  87.9213 161.8196 0001205  79.7783 280.3485 13.18684612 98137
ONEWEB-0421             
1 50496U 21132AD  23327.54576302  .00000069  00000+0  14192-3 0  9996
2 50496  87.9155 161.7791 0001653  65.8520 294.2785 13.18686780 98174
ONEWEB-0424             
1 50497U 21132AE  23327.58158597  .00000079  00000+0  16806-3 0  9998
2 50497  87.9217 161.7799 0001715 105.4824 254.6498 13.18686870 98204
ONEWEB-0426             
1 50498U 21132AF  23327.54365587  .00000060  00000+0  12038-3 0  9997
2 50498  87.9211 161.8132 0002230  76.6199 283.5182 13.18685205 98143
ONEWEB-0427             
1 50499U 21132AG  23327.57947063 -.00000171  00000+0 -46658-3 0  9996
2 50499  87.9211 161.7804 0001851  87.8571 272.2773 13.18685335 98173
ONEWEB-0429             
1 50500U 21132AH  23327.56684560  .00000098  00000+0  21477-3 0  9996
2 50500  87.9200 161.7842 0001479  85.8601 274.2700 13.18689797 98149
ONEWEB-0430             
1 50501U 21132AJ  23327.55631067  .00000087  00000+0  18703-3 0  9996
2 50501  87.9216 161.7900 0001553  91.0389 269.0920 13.18683266 98182
ONEWEB-0432             
1 50502U 21132AK  23327.58791206  .00000068  00000+0  13993-3 0  9997
2 50502  87.9214 161.7792 0001507  89.5807 270.5497 13.18686625 98140
